<?xml version="1.0" encoding="UTF-8"?><kml xmlns="http://www.opengis.net/kml/2.2"><Document><Placemark><name>E1</name><description>disturbed floodplain</description><ExtendedData><Data name="name"><value>E1</value></Data><Data name="description"><value>disturbed floodplain</value></Data></ExtendedData><Polygon><outerBoundaryIs><LinearRing><coordinates>18.7856911,-33.9739625 18.7857068,-33.9739657 18.7857333,-33.9739652 18.7857421,-33.9739575 18.7857366,-33.9739445 18.7857225,-33.973934 18.7857135,-33.9739093 18.7857062,-33.9739026 18.7856921,-33.9738989 18.7856728,-33.9738777 18.7856581,-33.9738723 18.7856437,-33.9738805 18.7856315,-33.9738821 18.7855948,-33.9738756 18.7855636,-33.9738778 18.7855488,-33.9738728 18.7855399,-33.973866 18.785515,-33.9738697 18.785501,-33.9738686 18.7854898,-33.9738718 18.7854746,-33.9738707 18.7854637,-33.9738749 18.7854005,-33.9738755 18.7853907,-33.9738715 18.7853751,-33.973872 18.7853617,-33.9738759 18.7853588,-33.973885 18.7853746,-33.973902 18.7853865,-33.9739094 18.7853918,-33.9739218 18.7853814,-33.9739303 18.7853846,-33.9739412 18.7854071,-33.9739559 18.7854123,-33.9739678 18.7854139,-33.9739897 18.785425,-33.9739942 18.7856234,-33.9740146 18.785641,-33.9740108 18.7856484,-33.9740034 18.7856322,-33.9739994 18.7856762,-33.9739983 18.7856862,-33.973994 18.7856931,-33.9739851 18.7856912,-33.9739751 18.7856973,-33.9739666 18.7856911,-33.9739625</coordinates></LinearRing></outerBoundaryIs></Polygon></Placemark><Placemark><name>E2</name><description>Glenelly</description><ExtendedData><Data name="name"><value>E2</value></Data><Data name="description"><value>Glenelly</value></Data></ExtendedData><Polygon><outerBoundaryIs><LinearRing><coordinates>18.8794252,-33.9200919 18.8794154,-33.9200968 18.8794259,-33.9200996 18.8794158,-33.9201054 18.8794149,-33.9201157 18.8794102,-33.9201246 18.8794081,-33.9201432 18.8794024,-33.9201636 18.879411779344082,-33.920158098478886 18.8794029,-33.9201835 18.879453018307686,-33.92018536378915 18.879464082419872,-33.92016672322083 18.879478499293327,-33.92017034004783 18.8795155,-33.9201554 18.8795346,-33.9201583 18.879555612802505,-33.92014752621338 18.87957338243723,-33.920139457904604 18.8796029,-33.9201356 18.8796243,-33.9201232 18.8796336,-33.9201038 18.8796492,-33.9201033 18.8797509,-33.9200902 18.8798209,-33.9200652 18.8798385,-33.9200545 18.8798593,-33.9200319 18.879934,-33.9199905 18.8799461,-33.919956 18.8799473,-33.9199225 18.8799253,-33.9199182 18.8799399,-33.919914 18.879929,-33.9199138 18.8799256,-33.9199039 18.8799344,-33.9198928 18.8799771,-33.9198608 18.8799702,-33.9198532 18.8799927,-33.9198528 18.880003999999467,-33.919856800000524 18.8799599558115,-33.91984955471698 18.879945874214172,-33.91984454678377 18.8799497,-33.9198332 18.8798765,-33.9199031 18.8798659,-33.9199092 18.8798519,-33.9199127 18.8798156,-33.9199094 18.8797606,-33.9199296 18.8797013,-33.9199991 18.8796909,-33.9200038 18.8796613,-33.92001 18.8796479,-33.9200099 18.879636,-33.9200062 18.8796273,-33.9199981 18.8795994,-33.919954 18.8795756,-33.9199394 18.879539,-33.9199271 18.8795244,-33.9199175 18.8795126,-33.9199165 18.8795006,-33.9199183 18.8794872,-33.9199234 18.8794641,-33.9199384 18.8794318,-33.9199817 18.8794226,-33.9200299 18.8794142,-33.920046 18.8794027,-33.9200477 18.879397,-33.9200385 18.8793917,-33.920053 18.8793924,-33.9200646 18.8794032,-33.9200685 18.87941513210535,-33.92007602427799 18.8794252,-33.9200919</coordinates></LinearRing></outerBoundaryIs></Polygon></Placemark><Placemark><name>E4</name><description>headwaters of Eerste E4</description><ExtendedData><Data name="name"><value>E4</value></Data><Data name="description"><value>headwaters of Eerste E4</value></Data></ExtendedData><Polygon><outerBoundaryIs><LinearRing><coordinates>18.95525,-33.9852558 18.9552306,-33.985269 18.9552146,-33.9852956 18.9552099,-33.985341 18.9550923,-33.9855341 18.9550871,-33.9855642 18.9551029,-33.9855923 18.9551129,-33.9856 18.955125,-33.9856034 18.9551394,-33.9856026 18.9551723,-33.9856244 18.955176,-33.9856349 18.9551866,-33.9856423 18.9552135,-33.9856452 18.9552551,-33.9856547 18.9552621,-33.9856477 18.9552822,-33.9856581 18.9552934,-33.9856598 18.9553297,-33.9856589 18.9553395,-33.9856512 18.9553792,-33.9856397 18.9553941,-33.9856597 18.9553993,-33.9856802 18.9554105,-33.985686 18.9554226,-33.9856833 18.9554381,-33.9856994 18.9554652,-33.9856864 18.9554799,-33.9856853 18.9555009,-33.9856992 18.9555076,-33.985708 18.9555176,-33.9857141 18.9555523,-33.9857217 18.9555818,-33.9857017 18.9555876,-33.9856935 18.9555957,-33.9856749 18.9556037,-33.9856674 18.9556281,-33.9856578 18.9556254,-33.9856479 18.9556553,-33.985621 18.9556689,-33.9855912 18.9556934,-33.9855647 18.9557066,-33.9855561 18.9557395,-33.985553 18.9557509,-33.9855479 18.955758,-33.9855402 18.9557932,-33.9855235 18.9558001,-33.9855101 18.9557943,-33.9855008 18.9557937,-33.9854838 18.9558027,-33.9854766 18.9558318,-33.9854647 18.9558728,-33.9854324 18.9558689,-33.9854126 18.9558607,-33.9854185 18.9558538,-33.98541 18.9559218,-33.9853483 18.9559204,-33.9853188 18.9559086,-33.9853266 18.9558973,-33.9853386 18.9558758,-33.9853493 18.9558568,-33.9853494 18.9558423,-33.9853457 18.9558331,-33.9853407 18.9558224,-33.9853387 18.9558251,-33.9853285 18.9558383,-33.9853264 18.9558327,-33.9853163 18.955825,-33.9853091 18.9558152,-33.9853051 18.9558038,-33.9853034 18.9557929,-33.9853038 18.9557994,-33.9852957 18.9558088,-33.9852905 18.9558271,-33.9852619 18.9558261,-33.9852521 18.9558199,-33.9852424 18.9558169,-33.9852519 18.9558097,-33.9852603 18.9557996,-33.9852552 18.9557885,-33.985257 18.9557768,-33.9852545 18.9557666,-33.9852589 18.9557413,-33.9852612 18.955758,-33.9852479 18.95575,-33.9852414 18.9557412,-33.9852474 18.9557356,-33.9852555 18.9557111,-33.9852475 18.9557017,-33.9852419 18.9557008,-33.9852325 18.9556971,-33.9852237 18.9556987,-33.9852278 18.9556779,-33.9852263 18.9556848,-33.985218 18.9556958,-33.9852173 18.9556935,-33.9852082 18.9556842,-33.9852001 18.9556723,-33.9852 18.9556828,-33.9852034 18.95568,-33.9852128 18.9556678,-33.9852111 18.9556621,-33.9852191 18.9556443,-33.9852302 18.9556317,-33.9852316 18.9556231,-33.9852257 18.9556111,-33.9852279 18.9556015,-33.9852334 18.9555611,-33.9852428 18.955527,-33.9852301 18.9554012,-33.9852646 18.9555257,-33.9852317 18.9555388,-33.9852209 18.9555447,-33.9852125 18.9555489,-33.9852003 18.9555382,-33.9851677 18.9555188,-33.9851545 18.9554915,-33.9851806 18.9554699,-33.9851922 18.9554603,-33.9852018 18.9554468,-33.9852066 18.9554346,-33.9852043 18.9554174,-33.9851921 18.9554068,-33.9851898 18.9553926,-33.9851905 18.9554168,-33.9851473 18.9553263,-33.9851656 18.9552861,-33.9851966 18.9552801,-33.9852072 18.9552784,-33.9852183 18.955288,-33.9852235 18.9552778,-33.9852355 18.9552744,-33.9852553 18.9552683,-33.9852651 18.95525,-33.9852558</coordinates></LinearRing></outerBoundaryIs></Polygon></Placemark><Placemark><name>E3</name><description>oak and indigenous wild olive and camphor</description><ExtendedData><Data name="name"><value>E3</value></Data><Data name="description"><value>oak and indigenous wild olive and camphor</value></Data></ExtendedData><Polygon><outerBoundaryIs><LinearRing><coordinates>18.9203914,-33.9636276 18.9203792,-33.9636303 18.9203149,-33.9635978 18.9202874,-33.9635755 18.9202685,-33.9635512 18.9202329,-33.9635255 18.9201956,-33.9634805 18.9201921,-33.9634653 18.9201835,-33.9634577 18.9201936,-33.9634535 18.9202088,-33.963452 18.9202086,-33.9634404 18.9202112,-33.9634295 18.9202223,-33.9634223 18.9202365,-33.9634286 18.9202545,-33.9634397 18.9202672,-33.9634384 18.9202764,-33.9634323 18.9202874,-33.9634303 18.9202953,-33.9634392 18.9202973,-33.9634506 18.9203078,-33.9634551 18.9203231,-33.9634731 18.9203341,-33.9634753 18.9203385,-33.9634841 18.9203541,-33.9634815 18.9203616,-33.9634717 18.9203862,-33.9634589 18.9203941,-33.9634512 18.9204197,-33.9634364 18.9204318,-33.9634331 18.9204423,-33.9634364 18.9204524,-33.9634443 18.920454,-33.9634556 18.9204687,-33.9634597 18.9204585,-33.9634705 18.9204607,-33.9634851 18.9204713,-33.9635023 18.9204843,-33.963536 18.9205089,-33.9635615 18.920508,-33.9635707 18.9205043,-33.9635792 18.9204865,-33.9635911 18.9204802,-33.9636025 18.920425,-33.9636463 18.9204153,-33.9636415 18.9204035,-33.9636427 18.9203914,-33.9636276</coordinates></LinearRing></outerBoundaryIs></Polygon></Placemark><Placemark><name>B2 new site</name><description></description><ExtendedData><Data name="name"><value>B2 new site</value></Data><Data name="description"><value></value></Data></ExtendedData><Polygon><outerBoundaryIs><LinearRing><coordinates>19.08038567751646,-33.96742998527245 19.080339409410954,-33.96741663824561 19.080295488238335,-33.96741969693945 19.08020630478859,-33.96741969693945 19.080199599266052,-33.96747558759838 19.08018920570612,-33.96751340414279 19.08018920570612,-33.9675195215234 19.0802665,-33.967505 19.080218050000855,-33.96753525000063 19.080202350000615,-33.96755710000005 19.08020584999899,-33.96758585000019 19.080218299999874,-33.96760050000013 19.080230650000015,-33.96760215000017 19.080247800001132,-33.967592750000435 19.0802644000001,-33.96758220000015 19.080282299999872,-33.96758170000056 19.08030020000022,-33.96757950000015 19.080313399999948,-33.9675769500002 19.08033399999936,-33.96758150000073 19.08035235000018,-33.967582300000096 19.080359000000126,-33.967573250000015 19.08036694999998,-33.96756775000015 19.08038149999978,-33.96757035000029 19.080413840711113,-33.967569294740144 19.080480560660362,-33.96755650386039 19.080452397465706,-33.96754148847739 19.080411158502102,-33.96754204460274 19.080462791026264,-33.96752424858875 19.080443009726135,-33.96748073175892 19.0803722,-33.9674759 19.080383162907243,-33.96747294602387 19.0803767926559,-33.967481009839254 19.08038567751646,-33.96742998527245</coordinates></LinearRing></outerBoundaryIs></Polygon></Placemark><Placemark><name>B3</name><description>under steel bridge, river runs through this.</description><ExtendedData><Data name="name"><value>B3</value></Data><Data name="description"><value>under steel bridge, river runs through this.</value></Data></ExtendedData><Polygon><outerBoundaryIs><LinearRing><coordinates>19.0735045,-33.9551694 19.073502,-33.9551812 19.0735151,-33.9551829 19.0735263,-33.9551818 19.07354,-33.9551966 19.0735329,-33.9552042 19.0735232,-33.95521 19.0735124,-33.9552127 19.0734893,-33.9552102 19.0734751,-33.9552154 19.0734641,-33.9552157 19.0734284,-33.9552323 19.0734174,-33.9552331 19.0734223,-33.9552428 19.0734306,-33.9552369 19.0734375,-33.9552282 19.0734236,-33.9552244 19.0734211,-33.9552146 19.0734124,-33.9552073 19.0733836,-33.9551649 19.0733721,-33.9551607 19.0733608,-33.9551609 19.0733523,-33.9551551 19.0733301,-33.9551554 19.0733061,-33.9551493 19.0732264,-33.9551014 19.0732209,-33.9550923 19.0732083,-33.9550255 19.0732108,-33.9550147 19.0732207,-33.9550064 19.0732266,-33.9549961 19.073223,-33.9549357 19.0732434,-33.9548871 19.0732422,-33.9548231 19.0732366,-33.9547957 19.0732372,-33.9547854 19.07326,-33.9547903 19.0732714,-33.9547902 19.0732945,-33.9547948 19.0733036,-33.9548012 19.0733413,-33.9547949 19.0733545,-33.9547983 19.0733571,-33.9548073 19.0733685,-33.95481 19.0733796,-33.9548079 19.0734083,-33.954788 19.0734318,-33.9547845 19.0734453,-33.9547882 19.0734666,-33.9548012 19.0734779,-33.954805 19.073398858308792,-33.954829459686785 19.073411263525486,-33.95490677262694 19.07347597181797,-33.95506974140019 19.073481,-33.9551501 19.0734836,-33.9551601 19.0735045,-33.9551694</coordinates></LinearRing></outerBoundaryIs></Polygon></Placemark><Placemark><name>B6</name><description>berg damn outflow</description><ExtendedData><Data name="name"><value>B6</value></Data><Data name="description"><value>berg damn outflow</value></Data></ExtendedData><Polygon><outerBoundaryIs><LinearRing><coordinates>19.052884317934513,-33.89978235204891 19.0530418,-33.8997662 19.0530465,-33.8997558 19.0530659,-33.8997385 19.053073,-33.8997272 19.0531323,-33.8996714 19.0531453,-33.8996639 19.0531821,-33.8996637 19.0532151,-33.8996696 19.0532335,-33.8996832 19.0532373,-33.8996943 19.0532322,-33.8997204 19.0532228,-33.8997151 19.0532157,-33.8997229 19.0532072,-33.8997459 19.0532151,-33.8997525 19.0532383,-33.8997587 19.0532497,-33.8997662 19.0532701,-33.8998044 19.0532789,-33.8998142 19.0532855,-33.8998436 19.0532746,-33.8998569 19.0532621,-33.899857 19.0532199,-33.8998497 19.0532078,-33.899854 19.0531928,-33.8998513 19.0531805,-33.8998443 19.053165,-33.8998396 19.0531501,-33.8998474 19.0531589,-33.8998888 19.0531721,-33.8999124 19.0531503,-33.8999029 19.0531284,-33.8998998 19.0531183,-33.8999083 19.0531145,-33.8999177 19.0530923,-33.8999282 19.0530887,-33.8999399 19.0530932,-33.8999489 19.0531042,-33.899949 19.0531106,-33.8999669 19.0531205,-33.8999738 19.0530987,-33.8999817 19.0530846,-33.8999827 19.0530739,-33.8999806 19.0530655,-33.8999886 19.0530633,-33.8999985 19.0530654,-33.9000082 19.0530594,-33.9000165 19.05294768512249,-33.900090133613475 19.052909463644028,-33.9000561830795 19.052887000143528,-33.9000066486696 19.052862860262394,-33.900000526437175 19.052863530814648,-33.89998215973723 19.05282363295555,-33.89991731968912 19.052810221910477,-33.89988809990884 19.052884317934513,-33.89978235204891</coordinates></LinearRing></outerBoundaryIs></Polygon></Placemark><Placemark><name>gauge 1160295</name><description>under bridge franschhoeck river</description><ExtendedData><Data name="name"><value>gauge 1160295</value></Data><Data name="description"><value>under bridge franschhoeck river</value></Data></ExtendedData><Polygon><outerBoundaryIs><LinearRing><coordinates>19.078316688537598,-33.89081501305808 19.078379049897194,-33.89078690341236 19.07837100327015,-33.890693390068854 19.07828014343977,-33.89068754548149 19.078202359378338,-33.890682814148555 19.078146368265152,-33.89068225752114 19.078074619174004,-33.890674186423134 19.07806020230055,-33.890723169626874 19.07805047929287,-33.89075322748798 19.0780695900321,-33.89080972510563 19.07807596027851,-33.89084896727124 19.07813161611557,-33.89088125159254 19.078316688537598,-33.89081501305808</coordinates></LinearRing></outerBoundaryIs></Polygon></Placemark><Placemark><name>B5</name><description>tributary to franschhoek rivvier disturbed adjacent to grape</description><ExtendedData><Data name="name"><value>B5</value></Data><Data name="description"><value>tributary to franschhoek rivvier disturbed adjacent to grape</value></Data></ExtendedData><Polygon><outerBoundaryIs><LinearRing><coordinates>19.111998192965984,-33.917060090338126 19.111919067800045,-33.917034493393956 19.11188017576933,-33.917004723025315 19.11191537976265,-33.916922645786876 19.111929796636105,-33.91687757282909 19.111933819949627,-33.91681664082973 19.111971706151962,-33.91678269695731 19.111949913203716,-33.91674986598587 19.112012945115566,-33.91674764015685 19.112057872116566,-33.916756265244025 19.11216214299202,-33.91675932575861 19.112219475209713,-33.91678464455691 19.112295918166637,-33.916823874768006 19.112292900681496,-33.91685865330885 19.112279154360294,-33.91696048479476 19.112270437180996,-33.9170798444963 19.11213632673025,-33.917104050289495 19.111998192965984,-33.917060090338126</coordinates></LinearRing></outerBoundaryIs></Polygon></Placemark><Placemark><name>B4</name><description>tributary</description><ExtendedData><Data name="name"><value>B4</value></Data><Data name="description"><value>tributary </value></Data></ExtendedData><Polygon><outerBoundaryIs><LinearRing><coordinates>19.116342701017857,-33.9473639804452 19.116330295801163,-33.947369543017544 19.11633,-33.9473522 19.1163006,-33.947374 19.1162603,-33.9473894 19.1162487,-33.9473893 19.1162471,-33.9473776 19.1162405,-33.9473697 19.116235,-33.9473574 19.1162212,-33.9473546 19.1162086,-33.9473297 19.1161773,-33.9473104 19.1161723,-33.9472912 19.1161599,-33.9472826 19.1161552,-33.9472704 19.1161473,-33.9472639 19.116149,-33.9472484 19.1162066,-33.9471912 19.1162271,-33.947144 19.1162514,-33.9471127 19.1162736,-33.9471005 19.1163096,-33.9470915 19.116374,-33.9471035 19.1163737,-33.9471132 19.1163703,-33.9471218 19.1163835,-33.9471206 19.1164006,-33.9471407 19.1163785,-33.9471629 19.1163753,-33.9471828 19.1163864,-33.9471894 19.116394,-33.947201 19.1163841,-33.9472051 19.116404,-33.9472161 19.1164104,-33.9472255 19.1164229,-33.9472307 19.1164682,-33.947264 19.1165078,-33.947279 19.1165262,-33.9473049 19.1165365,-33.9473319 19.116537,-33.9473458 19.1165417,-33.9473611 19.1165324,-33.9473671 19.116531,-33.9473785 19.1165399,-33.9473845 19.1165311,-33.9473948 19.1165322,-33.9474218 19.1165139,-33.9474292 19.1164897,-33.9474472 19.1164725,-33.9474542 19.1164467,-33.9474611 19.1164346,-33.9474581 19.1164165,-33.9474467 19.1164066,-33.9474363 19.1163956,-33.9474349 19.1163881,-33.9474254 19.1163879,-33.9474126 19.116342701017857,-33.9473639804452</coordinates></LinearRing></outerBoundaryIs></Polygon></Placemark><Placemark><name>B7</name><description>grass patch in silt floodplain.</description><ExtendedData><Data name="name"><value>B7</value></Data><Data name="description"><value>grass patch in silt floodplain.</value></Data></ExtendedData><Polygon><outerBoundaryIs><LinearRing><coordinates>19.030980058014393,-33.876255481461584 19.030953235924247,-33.876200922732 19.030957594513897,-33.876179767296854 19.03097670525312,-33.876161952189506 19.030982740223404,-33.87615610660661 19.030982740223404,-33.87614859085656 19.030980728566647,-33.876133837715656 19.0310102,-33.8760797 19.0310357,-33.8760622 19.0310564,-33.8760544 19.0310796,-33.8760494 19.0311362,-33.8760478 19.0311468,-33.8760506 19.0312443,-33.8760968 19.0312542,-33.8761094 19.0312462,-33.8762005 19.0312358,-33.8762124 19.0312002,-33.8762142 19.0311901,-33.8762183 19.0311804,-33.8762273 19.0311869,-33.8762403 19.0311971,-33.8762483 19.0312077,-33.8762533 19.0312263,-33.8762535 19.0312356,-33.8762477 19.031243,-33.8762403 19.0312594,-33.8762322 19.0312802,-33.8762304 19.0312969,-33.8762329 19.0313111,-33.8762392 19.0313148,-33.8762494 19.0313071,-33.8762624 19.0312976,-33.8762708 19.0312635,-33.8762841 19.0312516,-33.8762861 19.030980058014393,-33.876255481461584</coordinates></LinearRing></outerBoundaryIs></Polygon></Placemark><Placemark><name>B8</name><description>Pennisitum</description><ExtendedData><Data name="name"><value>B8</value></Data><Data name="description"><value> Pennisitum</value></Data></ExtendedData><Polygon><outerBoundaryIs><LinearRing><coordinates>18.9736516,-33.7741141 18.9736889,-33.7741101 18.9737014,-33.7741136 18.9737156,-33.7741285 18.9737328,-33.774124 18.9737514,-33.7741251 18.9737614,-33.774133 18.9737644,-33.7741472 18.9737622,-33.77417 18.9737511,-33.7741925 18.9737478,-33.7742143 18.9737525,-33.7742404 18.9737414,-33.7742964 18.9737348,-33.7743093 18.9737202,-33.7743164 18.9737087,-33.7743182 18.9736825,-33.7743161 18.9736687,-33.7743229 18.9736692,-33.7743325 18.9736758,-33.7743422 18.9736865,-33.7743515 18.9737155,-33.7743732 18.9737242,-33.7743836 18.973727,-33.7743929 18.9737268,-33.774404 18.9737229,-33.7744133 18.973655551671982,-33.77446208347019 18.973625041544437,-33.77445121446749 18.9736516,-33.7741141</coordinates></LinearRing></outerBoundaryIs></Polygon></Placemark><Placemark><name>B10</name><description>Berg public access  aquatic invasive plants present</description><ExtendedData><Data name="name"><value>B10</value></Data><Data name="description"><value>Berg public access  aquatic invasive plants present</value></Data></ExtendedData><Polygon><outerBoundaryIs><LinearRing><coordinates>18.968571089208126,-33.750385813070274 18.968501016497612,-33.7502564633879 18.968475200235844,-33.750100908985594 18.968504704535007,-33.750017556241716 18.968640156090263,-33.74998661256033 18.968691788613796,-33.750042645704916 18.968726322054863,-33.750221338224954 18.968732357025146,-33.750362675102636 18.968745432794094,-33.75044491242919 18.968684412539005,-33.75053690663322 18.96860796958208,-33.75055558423228 18.968571089208126,-33.750385813070274</coordinates></LinearRing></outerBoundaryIs></Polygon></Placemark><Placemark><name>gauge 1160263</name><description>floodplain of knotweed and willows south of gauge</description><ExtendedData><Data name="name"><value>gauge 1160263</value></Data><Data name="description"><value>floodplain of knotweed and willows south of gauge</value></Data></ExtendedData><Polygon><outerBoundaryIs><LinearRing><coordinates>18.9741015,-33.7080078 18.9740287,-33.7080761 18.9739509,-33.7081757 18.9738795,-33.7082638 18.9738058,-33.7082225 18.9737575,-33.7081818 18.9738121,-33.7080965 18.9738832,-33.7080273 18.9739536,-33.7079657 18.9740582,-33.7079358 18.974135,-33.707882 18.9742108,-33.7078482 18.9742121,-33.7079077 18.9741015,-33.7080078</coordinates></LinearRing></outerBoundaryIs></Polygon></Placemark><Placemark><name>B13</name><description>next to grapes</description><ExtendedData><Data name="name"><value>B13</value></Data><Data name="description"><value>next to grapes </value></Data></ExtendedData><Polygon><outerBoundaryIs><LinearRing><coordinates>18.9720606431365,-33.619523219336365 18.972092159092426,-33.61956007311732 18.97214613854885,-33.6195896678088 18.97224940359592,-33.61967817262739 18.97225476801395,-33.61953103680637 18.972282260656357,-33.619398139719834 18.972284272313118,-33.619323315219596 18.97231914103031,-33.61923676441066 18.972030133008957,-33.61934062537095 18.971952348947525,-33.61941684583474 18.972000628709793,-33.61948608634416 18.9720606431365,-33.619523219336365</coordinates></LinearRing></outerBoundaryIs></Polygon></Placemark><Placemark><name>B14</name><description>fallow land</description><ExtendedData><Data name="name"><value>B14</value></Data><Data name="description"><value>fallow land</value></Data></ExtendedData><Polygon><outerBoundaryIs><LinearRing><coordinates>18.948807567358013,-33.56101334096943 18.948842771351337,-33.561059998217104 18.948860876262188,-33.56109184806032 18.948856852948666,-33.56112481542952 18.948866575956345,-33.561158341554794 18.9488672,-33.5611976 18.9489226,-33.5612706 18.9489151,-33.5612784 18.9489084854722,-33.56131032649277 18.948834724724293,-33.5613061357352 18.94881058484316,-33.56130585635136 18.94869390875101,-33.56124830325995 18.948672115802765,-33.561233775289054 18.948634564876556,-33.56121617409029 18.948523923754692,-33.56106251267884 18.948607742786407,-33.56103625051934 18.948700949549675,-33.560984284946166 18.948807567358013,-33.56101334096943</coordinates></LinearRing></outerBoundaryIs></Polygon></Placemark><Placemark><name>B15</name><description>Phragmitis australis Doring Rivier</description><ExtendedData><Data name="name"><value>B15</value></Data><Data name="description"><value>Phragmitis australis Doring Rivier</value></Data></ExtendedData><Polygon><outerBoundaryIs><LinearRing><coordinates>18.927052170038223,-33.54203348530105 18.927164822816852,-33.542191372246045 18.927627839148048,-33.54209272786997 18.927773013710976,-33.541986817777115 18.927583247423172,-33.541918912293106 18.927151411771774,-33.541965579853695 18.927052170038223,-33.54203348530105</coordinates></LinearRing></outerBoundaryIs></Polygon></Placemark><Placemark><name>B16</name><description></description><ExtendedData><Data name="name"><value>B16</value></Data><Data name="description"><value></value></Data></ExtendedData><Polygon><outerBoundaryIs><LinearRing><coordinates>18.931647799909115,-33.52450791867391 18.9316588640213,-33.52448388142733 18.9317524060607,-33.52446934727497 18.93180102109909,-33.52447158329858 18.931915014982224,-33.52447912987778 18.931905291974545,-33.5245098751937 18.931914679706097,-33.52454285652042 18.931785598397255,-33.52484723444211 18.93163170665503,-33.524821799780774 18.93164243549109,-33.52454872607726 18.931647799909115,-33.52450791867391</coordinates></LinearRing></outerBoundaryIs></Polygon></Placemark><Placemark><name>gauge 1160265</name><description>Kleinberg river gauge</description><ExtendedData><Data name="name"><value>gauge 1160265</value></Data><Data name="description"><value>Kleinberg river gauge</value></Data></ExtendedData><Polygon><outerBoundaryIs><LinearRing><coordinates>19.0739582,-33.311628 19.0739703,-33.3116316 19.0739702,-33.3116415 19.0739528,-33.3116474 19.0739423,-33.3116536 19.073931,-33.3116904 19.0739229,-33.3117037 19.0739293,-33.3117133 19.0739588,-33.3117374 19.073967,-33.3117482 19.0739837,-33.3118261 19.0739973,-33.3118336 19.0740039,-33.3118426 19.0740077,-33.3118543 19.0740071,-33.3118926 19.0740192,-33.3119193 19.0740108,-33.311931 19.073991,-33.3119352 19.0739523,-33.311925 19.073937,-33.3119243 19.0739268,-33.3119204 19.0739198,-33.3119115 19.0739195,-33.3118957 19.0739331,-33.3118699 19.0739345,-33.3118372 19.0739416,-33.3118127 19.0739335,-33.3117981 19.0738884,-33.3117456 19.0738789,-33.3117403 19.073818,-33.3117224 19.0738115,-33.3117122 19.0738092,-33.3116807 19.07382,-33.3116789 19.0738068,-33.311666 19.0738016,-33.3116554 19.0738013,-33.3116442 19.0738825,-33.3116572 19.0739093,-33.3116462 19.0739253,-33.3116352 19.0739181,-33.3115837 19.073922,-33.3115632 19.0739265,-33.3115543 19.0739582,-33.311628</coordinates></LinearRing></outerBoundaryIs></Polygon></Placemark><Placemark><name>B18</name><description>kleinberg river</description><ExtendedData><Data name="name"><value>B18</value></Data><Data name="description"><value>kleinberg river</value></Data></ExtendedData><Polygon><outerBoundaryIs><LinearRing><coordinates>19.100871719419956,-33.30663480604005 19.100722186267376,-33.30627418153996 19.100633338093758,-33.306063186094285 19.10062830895186,-33.305870123413186 19.10059880465269,-33.305747112280244 19.10091530531645,-33.305842663084206 19.10110540688038,-33.30615005015101 19.10120263695717,-33.30642016879387 19.101167097687725,-33.30658661077751 19.100871719419956,-33.30663480604005</coordinates></LinearRing></outerBoundaryIs></Polygon></Placemark><Placemark><name>B20</name><description>Berg River</description><ExtendedData><Data name="name"><value>B20</value></Data><Data name="description"><value>Berg River</value></Data></ExtendedData><Polygon><outerBoundaryIs><LinearRing><coordinates>18.9313984,-33.2019459 18.9313876,-33.2019486 18.9313744,-33.2019601 18.9313679,-33.2019784 18.9313731,-33.2020772 18.9313978,-33.2021257 18.9313982,-33.2021388 18.9313929,-33.2021528 18.9313825,-33.2021566 18.9313535,-33.2021558 18.9312425,-33.2021807 18.9312187,-33.2021796 18.9311976,-33.2021732 18.9311745,-33.202149 18.9311805,-33.2021394 18.9311385,-33.202101 18.9311251,-33.2020741 18.9311219,-33.2020424 18.9311325,-33.2019752 18.9311574,-33.2019459 18.93117,-33.2019443 18.9311819,-33.2019471 18.9311934,-33.2019462 18.9312529,-33.2018695 18.9312602,-33.2018444 18.9312596,-33.2018211 18.9312619,-33.2018121 18.9312696,-33.2018043 18.931281,-33.2018003 18.9313149,-33.2017992 18.9313314,-33.2018044 18.9313442,-33.2018025 18.931363,-33.2018278 18.9313766,-33.2018387 18.9313814,-33.2018498 18.9313803,-33.201859 18.9314038,-33.2018637 18.931412,-33.2018728 18.9314139,-33.2018821 18.9314271,-33.2018879 18.9314373,-33.2019002 18.9314426,-33.2019131 18.9314422,-33.2019285 18.9314375,-33.2019367 18.9314267,-33.2019483 18.9313984,-33.2019459</coordinates></LinearRing></outerBoundaryIs></Polygon></Placemark><Placemark><name>B21</name><description>sandsprite</description><ExtendedData><Data name="name"><value>B21</value></Data><Data name="description"><value>sandsprite</value></Data></ExtendedData><Polygon><outerBoundaryIs><LinearRing><coordinates>18.891737407275684,-33.16202528656493 18.891606,-33.1629179 18.8916124,-33.1629098 18.8915222,-33.163075 18.8915135,-33.1630842 18.8915041,-33.1630886 18.8914639,-33.1630503 18.8914315,-33.1629881 18.8914367,-33.16297 18.8914464,-33.1629599 18.8914559,-33.1629395 18.8914596,-33.1628829 18.8914801,-33.1628526 18.8914917,-33.1628435 18.8915025,-33.1628303 18.8915114,-33.1628014 18.8914985,-33.1627045 18.8915064,-33.1626774 18.8915166,-33.162669 18.8915297,-33.162652 18.8915397,-33.1626461 18.8916028,-33.1625408 18.8916095,-33.1624697 18.8916075,-33.16246 18.8916114,-33.1624189 18.891662,-33.1622972 18.8917033,-33.16223 18.8917079,-33.1622388 18.8917045,-33.1622286 18.8917045,-33.1622166 18.89179989695549,-33.16211368026749 18.891825042665005,-33.16205109118513 18.89174424111843,-33.16193124559779 18.89168791472912,-33.161848167530124 18.891737407275684,-33.16202528656493</coordinates></LinearRing></outerBoundaryIs></Polygon></Placemark><Placemark><name>B24</name><description>Bothmansrivier sloped bank shrub community</description><ExtendedData><Data name="name"><value>B24</value></Data><Data name="description"><value>Bothmansrivier sloped bank shrub community</value></Data></ExtendedData><Polygon><outerBoundaryIs><LinearRing><coordinates>18.8426869,-33.0453985 18.8426874,-33.0454084 18.8427171,-33.0454485 18.8427268,-33.0454843 18.8427253,-33.0454989 18.8426877,-33.0455717 18.8426677,-33.0455783 18.842643,-33.0455796 18.842616,-33.0455865 18.8425769,-33.0455695 18.8425639,-33.0455599 18.8425551,-33.045549 18.8425491,-33.0455366 18.8425414,-33.0455281 18.8425305,-33.0455218 18.8425234,-33.045498 18.8425297,-33.0454617 18.8425288,-33.045451 18.8425205,-33.0454434 18.842515,-33.0454329 18.8425111,-33.0454097 18.8425,-33.0454046 18.8424861,-33.0454019 18.8424499,-33.0453683 18.8424442,-33.0453592 18.8424543,-33.0453316 18.8424632,-33.0453246 18.8424871,-33.0453201 18.8424992,-33.0453095 18.8425038,-33.0453003 18.842501,-33.0452608 18.8424919,-33.0452558 18.8424832,-33.0452611 18.8425112,-33.0452598 18.8425188,-33.0452664 18.8425216,-33.045257 18.8425287,-33.0452453 18.842539,-33.0452382 18.8425432,-33.0452482 18.8425934,-33.0452977 18.8426434,-33.0453713 18.8426687,-33.0453802 18.8426764,-33.0453884 18.8426855,-33.0454108 18.8427011,-33.0454286 18.8427102,-33.0454346 18.8427169,-33.0454423 18.8427062,-33.0454403 18.842717,-33.045451 18.8426869,-33.0453985</coordinates></LinearRing></outerBoundaryIs></Polygon></Placemark><Placemark><name>B26</name><ExtendedData><Data name="name"><value>B26</value></Data><Data name="description"><value></value></Data></ExtendedData><Polygon><outerBoundaryIs><LinearRing><coordinates>18.8313449,-33.0470094 18.8312809,-33.0470636 18.8312269,-33.0471142 18.8311592,-33.0471834 18.831187,-33.047241 18.8312494,-33.0472362 18.8313013,-33.0472278 18.8313355,-33.0471867 18.8313741,-33.0471671 18.8313751,-33.047114 18.831418,-33.0470985 18.8314368,-33.0470457 18.8313449,-33.0470094</coordinates></LinearRing></outerBoundaryIs></Polygon></Placemark><Placemark><name>B25</name><description>assegaibosrivier</description><ExtendedData><Data name="name"><value>B25</value></Data><Data name="description"><value>assegaibosrivier</value></Data></ExtendedData><Polygon><outerBoundaryIs><LinearRing><coordinates>18.8498077,-33.0384842 18.8498131,-33.0384922 18.8498083,-33.0385183 18.8498261,-33.0385391 18.8498325,-33.0385519 18.8498413,-33.0385607 18.8498558,-33.0385674 18.8498677,-33.038566 18.8498759,-33.0385752 18.8498868,-33.0385786 18.8499159,-33.0385743 18.8499268,-33.0385685 18.8499327,-33.0385463 18.8499452,-33.0385509 18.849957,-33.0385625 18.8499686,-33.0385642 18.8499794,-33.0385622 18.8500778,-33.0385661 18.8501153,-33.0385585 18.8501251,-33.038551 18.8501352,-33.0385472 18.8501454,-33.0385407 18.8501731,-33.0385445 18.8501888,-33.0385431 18.850218,-33.0385482 18.8502219,-33.0385364 18.8502225,-33.0385228 18.8502141,-33.0385166 18.8501343,-33.0385063 18.8501073,-33.0385124 18.8500898,-33.0385101 18.8500653,-33.0384896 18.8500587,-33.0384803 18.8500457,-33.0384735 18.8500447,-33.0384631 18.8498077,-33.0384842</coordinates></LinearRing></outerBoundaryIs></Polygon></Placemark><Placemark><name>B29</name><description>B29 </description><ExtendedData><Data name="name"><value>B29</value></Data><Data name="description"><value>B29</value></Data></ExtendedData><Polygon><outerBoundaryIs><LinearRing><coordinates>18.7792956456542,-32.99667267091206 18.779267817735672,-32.996686168358565 18.779219202697277,-32.99668841793277 18.77912800759077,-32.99666367261325 18.77909917384386,-32.9966153067414 18.779036141932014,-32.9965630040827 18.778992891311646,-32.99653657154447 18.778959028422832,-32.99650367145923 18.778924494981762,-32.99646908417691 18.778908737003803,-32.996426342150755 18.77887520939112,-32.99640637711828 18.778841346502304,-32.99637685135775 18.77888325601816,-32.996331297307854 18.77895601093769,-32.99629474157178 18.779041171073914,-32.99623512756971 18.779052570462227,-32.99618507427272 18.779097497463226,-32.99619266662858 18.77932582050562,-32.99636925901774 18.7792956456542,-32.99667267091206</coordinates></LinearRing></outerBoundaryIs></Polygon></Placemark><Placemark><name>B28</name><description>Misverstand Dam </description><ExtendedData><Data name="name"><value>B28</value></Data><Data name="description"><value>Misverstand Dam</value></Data></ExtendedData><Polygon><outerBoundaryIs><LinearRing><coordinates>18.7877579,-33.0257655 18.7877594,-33.0257557 18.7877568,-33.0257418 18.7877501,-33.0257516 18.7877376,-33.0257624 18.7877265,-33.0257618 18.7877141,-33.0257582 18.787694,-33.0257584 18.7876788,-33.0257997 18.7875659,-33.0259194 18.7876241,-33.025969 18.7876383,-33.0259703 18.7876664,-33.0259836 18.7876798,-33.0260018 18.7876906,-33.0260108 18.7877335,-33.0260302 18.7877429,-33.026062 18.7877546,-33.0260727 18.7877685,-33.0260782 18.7877815,-33.0260797 18.7878054,-33.0260313 18.7878186,-33.0260235 18.7878288,-33.0260131 18.7878329,-33.0260045 18.7878261,-33.0259761 18.7878268,-33.0259649 18.7878753,-33.025916 18.7878725,-33.025902 18.7878779,-33.0258874 18.7879096,-33.0258641 18.7879174,-33.025855 18.7879331,-33.025821 18.7879247,-33.0258133 18.7879037,-33.0258057 18.7878776,-33.0257857 18.7878655,-33.0257802 18.7878543,-33.0257788 18.7878415,-33.025784 18.7878343,-33.0257955 18.7878192,-33.0258014 18.7878093,-33.0257958 18.7878026,-33.0257833 18.7877675,-33.0257375 18.7877544,-33.0257314 18.7877579,-33.0257655</coordinates></LinearRing></outerBoundaryIs></Polygon></Placemark><Placemark><name>B27</name><description>erodium plot on wheat field</description><ExtendedData><Data name="name"><value>B27</value></Data><Data name="description"><value>erodium plot on wheat field</value></Data></ExtendedData><Polygon><outerBoundaryIs><LinearRing><coordinates>18.8034702,-33.0243707 18.8035775,-33.0243036 18.8035839,-33.024291 18.8035824,-33.0242779 18.8035897,-33.0242559 18.8035428,-33.0241517 18.8035309,-33.0240972 18.803517,-33.024086 18.8035005,-33.024091 18.8034855,-33.0240995 18.8034714,-33.0241038 18.8034458,-33.0241064 18.8034356,-33.0241097 18.8034152,-33.0241289 18.8033765,-33.0241535 18.8033402,-33.0241637 18.8032886,-33.0241943 18.8032283,-33.0242461 18.8032169,-33.0242654 18.8032142,-33.0242785 18.8032162,-33.0242922 18.8032362,-33.0243262 18.8032532,-33.0243402 18.8032593,-33.0243503 18.8032639,-33.0243945 18.803259,-33.0244114 18.8032595,-33.0244231 18.8032634,-33.0244329 18.8032783,-33.0244312 18.8033261,-33.0243944 18.8033584,-33.0243659 18.8034702,-33.0243707</coordinates></LinearRing></outerBoundaryIs></Polygon></Placemark><Placemark><name>B22</name><description>galleneum Grove</description><ExtendedData><Data name="name"><value>B22</value></Data><Data name="description"><value> galleneum Grove</value></Data></ExtendedData><Polygon><outerBoundaryIs><LinearRing><coordinates>18.86204581707716,-33.13666823850351 18.862026035785675,-33.13668592574239 18.862040117383,-33.13672579220425 18.862040117383,-33.136751059670715 18.8620175,-33.1367768 18.862005583941936,-33.13679766408976 18.8619735,-33.1368183 18.86196903884411,-33.13681984329255 18.8619582,-33.1368292 18.8619419,-33.1368341 18.861928,-33.1368298 18.8618999,-33.1368251 18.8618926,-33.1368162 18.861887902021408,-33.13682237003682 18.8618908,-33.1368047 18.86187482625246,-33.136811140061745 18.8618095,-33.1367507 18.8618127,-33.1367396 18.861819170415398,-33.13665111276087 18.861824199557304,-33.13660366601383 18.861835263669494,-33.136548919735375 18.861834593117234,-33.13652365221072 18.861845321953297,-33.136504280436895 18.861917071044445,-33.1364983846788 18.86195931583643,-33.136492488920304 18.861953280866146,-33.1365306709683 18.861977756023407,-33.13653993572745 18.861971050500873,-33.13657783700466 18.861981444060802,-33.136598612512635 18.861993178725243,-33.13660928101482 18.862011954188347,-33.136629214265426 18.86203072965145,-33.13665644700893 18.86204581707716,-33.13666823850351</coordinates></LinearRing></outerBoundaryIs></Polygon></Placemark><Placemark><name>B23 real</name><description></description><ExtendedData><Data name="name"><value>B23 real</value></Data><Data name="description"><value></value></Data></ExtendedData><Polygon><outerBoundaryIs><LinearRing><coordinates>18.8311833,-33.0742133 18.8311977,-33.0742047 18.8312206,-33.0742059 18.8312385,-33.0742105 18.8312484,-33.074218 18.831267,-33.0742627 18.8312649,-33.0742833 18.8312425,-33.0743422 18.8312476,-33.0743559 18.8313017,-33.0744005 18.8313144,-33.0744054 18.8313232,-33.0744172 18.8313124,-33.0744419 18.8313113,-33.0744521 18.8313139,-33.0744662 18.8313347,-33.0745117 18.8313369,-33.0745412 18.8313341,-33.0745503 18.8313261,-33.0745573 18.8313138,-33.0745571 18.8313015,-33.0745539 18.831293,-33.0745673 18.8312825,-33.0745911 18.8312673,-33.0746096 18.8312145,-33.0746432 18.8311913,-33.0746455 18.8311807,-33.0746408 18.8311729,-33.0746337 18.83116,-33.0746278 18.8311519,-33.0746178 18.8311937,-33.0745391 18.8311702,-33.0744107 18.8311833,-33.0742133</coordinates></LinearRing></outerBoundaryIs></Polygon></Placemark><Placemark><name>E3</name><description>Quercus robur grove</description><ExtendedData><Data name="name"><value>E3</value></Data><Data name="description"><value>Quercus robur grove</value></Data></ExtendedData><Polygon><outerBoundaryIs><LinearRing><coordinates>18.920480757951736,-33.96347416851008 18.92040867358446,-33.963441911691426 18.920366428792477,-33.96338295954296 18.920256458222866,-33.96337656378856 18.920230641961098,-33.96339380451674 18.920167945325375,-33.96337016803365 18.9201283,-33.9633954 18.920108936727047,-33.963443302071795 18.920151852071285,-33.963472778130225 18.920243,-33.9635334 18.9202626,-33.9635511 18.920277,-33.9635578 18.9203211,-33.9635632 18.9203473,-33.9635763 18.920418731868267,-33.963639345476 18.92048142850399,-33.963603751813494 18.920533396303654,-33.96354758053454 18.920480757951736,-33.96347416851008</coordinates></LinearRing></outerBoundaryIs></Polygon></Placemark></Document></kml>